GSAT-18                 
1 41793U 16060A   26159.50101809 -.00000061  00000+0  00000+0 0  9990
2 41793   0.0420 116.9083 0005729 313.6291  80.7122  1.00271252 35444
SKY MUSTER 2 (NBN1B)    
1 41794U 16060B   26159.49697284 -.00000228  00000+0  00000+0 0  9991
2 41794   0.0115 296.5433 0001490 134.8884 149.1781  1.00273662 35439
HIMAWARI-9              
1 41836U 16064A   26159.49697284 -.00000258  00000+0  00000+0 0  9995
2 41836   0.0269 161.0754 0000848 317.3775  98.1186  1.00272684 35122
SHIJIAN-17 (SJ-17)      
1 41838U 16065A   26159.46409087  .00000021  00000+0  00000+0 0  9994
2 41838   5.7297  72.7089 0001926  24.1836 215.9388  0.99853637 35117
GOES 16                 
1 41866U 16071A   26159.46554259 -.00000075  00000+0  00000+0 0  9994
2 41866   0.3173  85.6157 0000446 315.9570 278.2106  1.00270684 35010
TIANLIAN 1-04           
1 41869U 16072A   26159.50669753  .00000047  00000+0  00000+0 0  9997
2 41869   0.8466  82.9561 0041900  89.7361  83.4353  1.00269594 35216
WGS F8 (USA 272)        
1 41879U 16075A   26159.59002942 -.00000187  00000+0  00000+0 0  9997
2 41879   0.0054 350.7784 0000122 318.2860 310.1355  1.00268219 34731
FENGYUN 4A              
1 41882U 16077A   26159.51082012 -.00000341  00000+0  00000+0 0  9993
2 41882   2.2999  80.3768 0008275 151.4985 332.6937  1.00274010 34840
ECHOSTAR 19             
1 41893U 16079A   26159.32451705 -.00000123  00000+0  00000+0 0  9993
2 41893   0.0180   0.5898 0001335  80.6621 195.2059  1.00271349 34613
JCSAT-110A (JCSAT-15)   
1 41903U 16082A   26159.36549410 -.00000335  00000+0  00000+0 0  9999
2 41903   0.0025  21.3684 0000646  66.7056  50.3308  1.00270749 34675
STAR ONE D1             
1 41904U 16082B   26159.39827108 -.00000195  00000+0  00000+0 0  9990
2 41904   0.0188  53.2715 0002151  31.3559 231.5264  1.00273057 34684
TJS-2                   
1 41911U 17001A   26159.49945808  .00000009  00000+0  00000+0 0  9992
2 41911   0.8099  85.4501 0000650  23.6984  34.0896  1.00272612 34637
SBIRS GEO-4 (USA 273)   
1 41937U 17004A   26159.49032939  .00000139  00000+0  00000+0 0  9999
2 41937   2.2256  43.0311 0002189  30.1294  21.1439  1.00272071 34517
HISPASAT 36W-1          
1 41942U 17006A   26159.26531325 -.00000229  00000+0  00000+0 0  9996
2 41942   0.0256 205.4232 0001227 235.0956 235.6588  1.00273682 34154
TELKOM 3S               
1 41944U 17007A   26159.43517184 -.00000347  00000+0  00000+0 0  9996
2 41944   0.0177 315.8425 0002236 126.6734  88.9862  1.00270099 34050
INTELSAT 32E (IS-32E)   
1 41945U 17007B   26159.27822536 -.00000253  00000+0  00000+0 0  9995
2 41945   0.0096 315.9191 0000503   7.1087 350.6366  1.00272394 34138
ECHOSTAR 23             
1 42070U 17014A   26159.46450259 -.00000041  00000+0  00000+0 0  9998
2 42070   0.0175 337.5935 0001942 101.2571 235.3340  1.00271113 33839
WGS F9 (USA 275)        
1 42075U 17016A   26159.34133049 -.00000080  00000+0  00000+0 0  9990
2 42075   0.0103 278.5527 0000573 187.7613 261.3090  1.00275450 33807
SES-10                  
1 42432U 17017A   26159.45618696 -.00000257  00000+0  00000+0 0  9992
2 42432   0.0194  28.7102 0002874  60.6001 264.8746  1.00270894 33661
CHINASAT 16 (SJ-13)     
1 42662U 17018A   26158.69237051 -.00000337  00000+0  00000+0 0  9994
2 42662   0.0974  91.4359 0003963 138.2362  26.2183  1.00274073 33652
KOREASAT 7              
1 42691U 17023A   26159.36670742 -.00000346  00000+0  00000+0 0  9995
2 42691   0.0188 348.6854 0000528  67.7327  88.2417  1.00271848 33283
SGDC                    
1 42692U 17023B   26158.49717919 -.00000235  00000+0  00000+0 0  9994
2 42692   0.0249  58.8988 0002845  27.2607 273.8812  1.00272417 33303
GSAT-9                  
1 42695U 17024A   26159.50561145 -.00000271  00000+0  00000+0 0  9999
2 42695   0.0107 306.9884 0002546 126.2610 103.0105  1.00272761 33214
INMARSAT 5-F4           
1 42698U 17025A   26159.14836492  .00000090  00000+0  00000+0 0  9991
2 42698   0.0178 353.4309 0000156 108.6855 264.3208  1.00274078 33188
SES-15                  
1 42709U 17026A   26159.46785215  .00000076  00000+0  00000+0 0  9990
2 42709   0.0197 331.6112 0000532  88.3105 236.2113  1.00269973  7342
QZS-2 (MICHIBIKI-2)     
1 42738U 17028A   26158.57536786 -.00000151  00000+0  00000+0 0  9997
2 42738  39.4419 243.2963 0760585 269.1564  91.9396  1.00286521  7536
VIASAT-2                
1 42740U 17029A   26159.47247596 -.00000249  00000+0  00000+0 0  9997
2 42740   0.0185 290.8170 0000324 143.5885 282.6654  1.00272361 33116
EUTELSAT 172B           
1 42741U 17029B   26159.51017149  .00000010  00000+0  00000+0 0  9997
2 42741   0.0385 136.1954 0000071  44.5148  71.8540  1.00271586 33651
GSAT-19                 
1 42747U 17031A   26159.49581808  .00000141  00000+0  00000+0 0  9996
2 42747   0.1098  90.7345 0006929 350.3236  42.1806  1.00271365 33068
ECHOSTAR 21             
1 42749U 17032A   26159.34575051  .00000079  00000+0  00000+0 0  9996
2 42749   1.7717 355.1009 0002300  87.1201 309.2532  1.00271018 33019
BULGARIASAT-1           
1 42801U 17038A   26159.27276663  .00000027  00000+0  00000+0 0  9993
2 42801   0.0221 279.3192 0003410 167.5628 269.8787  1.00271092 32754
HELLAS-SAT 3            
1 42814U 17040A   26159.49408475  .00000168  00000+0  00000+0 0  9998
2 42814   0.0567  54.7980 0004662 355.6219  63.3421  1.00273583 32723
