OBJECT_NAME,OBJECT_ID,EPOCH,MEAN_MOTION,ECCENTRICITY,INCLINATION,RA_OF_ASC_NODE,ARG_OF_PERICENTER,MEAN_ANOMALY,EPHEMERIS_TYPE,CLASSIFICATION_TYPE,NORAD_CAT_ID,ELEMENT_SET_NO,REV_AT_EPOCH,BSTAR,MEAN_MOTION_DOT,MEAN_MOTION_DDOT
GSAT-18,2016-060A,2026-06-08T12:01:27.962976,1.00271252,.0005729,0.0420,116.9083,313.6291,80.7122,0,U,41793,999,3544,0,-.61E-6,0
SKY MUSTER 2 (NBN1B),2016-060B,2026-06-08T11:55:38.453376,1.00273662,.000149,0.0115,296.5433,134.8884,149.1781,0,U,41794,999,3543,0,-.228E-5,0
HIMAWARI-9,2016-064A,2026-06-08T11:55:38.453376,1.00272684,.0000848,0.0269,161.0754,317.3775,98.1186,0,U,41836,999,3512,0,-.258E-5,0
SHIJIAN-17 (SJ-17),2016-065A,2026-06-08T11:08:17.451168,0.99853637,.0001926,5.7297,72.7089,24.1836,215.9388,0,U,41838,999,3511,0,.21E-6,0
GOES 16,2016-071A,2026-06-08T11:10:22.879776,1.00270684,.0000446,0.3173,85.6157,315.9570,278.2106,0,U,41866,999,3501,0,-.75E-6,0
TIANLIAN 1-04,2016-072A,2026-06-08T12:09:38.666592,1.00269594,.00419,0.8466,82.9561,89.7361,83.4353,0,U,41869,999,3521,0,.47E-6,0
WGS F8 (USA 272),2016-075A,2026-06-08T14:09:38.541888,1.00268219,.0000122,0.0054,350.7784,318.2860,310.1355,0,U,41879,999,3473,0,-.187E-5,0
FENGYUN 4A,2016-077A,2026-06-08T12:15:34.858368,1.00274010,.0008275,2.2999,80.3768,151.4985,332.6937,0,U,41882,999,3484,0,-.341E-5,0
ECHOSTAR 19,2016-079A,2026-06-08T07:47:18.273120,1.00271349,.0001335,0.0180,0.5898,80.6621,195.2059,0,U,41893,999,3461,0,-.123E-5,0
JCSAT-110A (JCSAT-15),2016-082A,2026-06-08T08:46:18.690240,1.00270749,.0000646,0.0025,21.3684,66.7056,50.3308,0,U,41903,999,3467,0,-.335E-5,0
STAR ONE D1,2016-082B,2026-06-08T09:33:30.621312,1.00273057,.0002151,0.0188,53.2715,31.3559,231.5264,0,U,41904,999,3468,0,-.195E-5,0
TJS-2,2017-001A,2026-06-08T11:59:13.178112,1.00272612,.000065,0.8099,85.4501,23.6984,34.0896,0,U,41911,999,3463,0,.9E-7,0
SBIRS GEO-4 (USA 273),2017-004A,2026-06-08T11:46:04.459296,1.00272071,.0002189,2.2256,43.0311,30.1294,21.1439,0,U,41937,999,3451,0,.139E-5,0
HISPASAT 36W-1,2017-006A,2026-06-08T06:22:03.064800,1.00273682,.0001227,0.0256,205.4232,235.0956,235.6588,0,U,41942,999,3415,0,-.229E-5,0
TELKOM 3S,2017-007A,2026-06-08T10:26:38.846976,1.00270099,.0002236,0.0177,315.8425,126.6734,88.9862,0,U,41944,999,3405,0,-.347E-5,0
INTELSAT 32E (IS-32E),2017-007B,2026-06-08T06:40:38.671104,1.00272394,.0000503,0.0096,315.9191,7.1087,350.6366,0,U,41945,999,3413,0,-.253E-5,0
ECHOSTAR 23,2017-014A,2026-06-08T11:08:53.023776,1.00271113,.0001942,0.0175,337.5935,101.2571,235.3340,0,U,42070,999,3383,0,-.41E-6,0
WGS F9 (USA 275),2017-016A,2026-06-08T08:11:30.954336,1.00275450,.0000573,0.0103,278.5527,187.7613,261.3090,0,U,42075,999,3380,0,-.8E-6,0
SES-10,2017-017A,2026-06-08T10:56:54.553344,1.00270894,.0002874,0.0194,28.7102,60.6001,264.8746,0,U,42432,999,3366,0,-.257E-5,0
CHINASAT 16 (SJ-13),2017-018A,2026-06-07T16:37:00.812064,1.00274073,.00039635,0.0974,91.4359,138.2362,26.2183,0,U,42662,999,3365,0,-.337E-5,0
KOREASAT 7,2017-023A,2026-06-08T08:48:03.521088,1.00271848,.0000528,0.0188,348.6854,67.7327,88.2417,0,U,42691,999,3328,0,-.346E-5,0
SGDC,2017-023B,2026-06-07T11:55:56.282016,1.00272417,.00028458,0.0249,58.8988,27.2607,273.8812,0,U,42692,999,3330,0,-.235E-5,0
GSAT-9,2017-024A,2026-06-08T12:08:04.829280,1.00272761,.0002546,0.0107,306.9884,126.2610,103.0105,0,U,42695,999,3321,0,-.271E-5,0
INMARSAT 5-F4,2017-025A,2026-06-08T03:33:38.729088,1.00274078,.0000156,0.0178,353.4309,108.6855,264.3208,0,U,42698,999,3318,0,.9E-6,0
SES-15,2017-026A,2026-06-08T11:13:42.425760,1.00269973,.0000532,0.0197,331.6112,88.3105,236.2113,0,U,42709,999,734,0,.76E-6,0
QZS-2 (MICHIBIKI-2),2017-028A,2026-06-07T13:48:31.783104,1.00286521,.07605855,39.4419,243.2963,269.1564,91.9396,0,U,42738,999,753,0,-.151E-5,0
VIASAT-2,2017-029A,2026-06-08T11:20:21.922944,1.00272361,.0000324,0.0185,290.8170,143.5885,282.6654,0,U,42740,999,3311,0,-.249E-5,0
EUTELSAT 172B,2017-029B,2026-06-08T12:14:38.816736,1.00271586,.0000071,0.0385,136.1954,44.5148,71.8540,0,U,42741,999,3365,0,.1E-6,0
GSAT-19,2017-031A,2026-06-08T11:53:58.682112,1.00271365,.0006929,0.1098,90.7345,350.3236,42.1806,0,U,42747,999,3306,0,.141E-5,0
ECHOSTAR 21,2017-032A,2026-06-08T08:17:52.844064,1.00271018,.00023,1.7717,355.1009,87.1201,309.2532,0,U,42749,999,3301,0,.79E-6,0
BULGARIASAT-1,2017-038A,2026-06-08T06:32:47.036832,1.00271092,.000341,0.0221,279.3192,167.5628,269.8787,0,U,42801,999,3275,0,.27E-6,0
HELLAS-SAT 3,2017-040A,2026-06-08T11:51:28.922400,1.00273583,.0004662,0.0567,54.7980,355.6219,63.3421,0,U,42814,999,3272,0,.168E-5,0
